{
  "type": "FeatureCollection",
  "features": [
    {
      "type": "Feature",
      "properties": {
        "norad_id": 44333,
        "name": "AT&T T-16",
        "group": "intelsat",
        "lat": 0.023053632283435876,
        "lon": 73.6465732119291,
        "alt_km": 35785.332600890586,
        "timestamp": "2025-12-20T05:41:49.686187+00:00",
        "meta_object_name": "AT&T T-16",
        "meta_object_id": "2019-034A",
        "meta_epoch": "2025-12-19T13:25:39.897984",
        "meta_mean_motion": 1.00270126,
        "meta_eccentricity": 0.00011499,
        "meta_inclination": 0.0216,
        "meta_ra_of_asc_node": 60.6149,
        "meta_arg_of_pericenter": 88.5847,
        "meta_mean_anomaly": 39.7646,
        "meta_ephemeris_type": 0,
        "meta_classification_type": "U",
        "meta_norad_cat_id": 44333,
        "meta_element_set_no": 999,
        "meta_rev_at_epoch": 2383,
        "meta_bstar": 0,
        "meta_mean_motion_dot": -9.1e-07,
        "meta_mean_motion_ddot": 0,
        "tle_line1": "1 44333U 19034A   25353.55948956 -.00000091  00000+0  00000+0 0  9992",
        "tle_line2": "2 44333   0.0216  60.6149 0001149  88.5847  39.7646  1.00270126 23839"
      },
      "geometry": {
        "type": "Point",
        "coordinates": [
          73.6465732119291,
          0.023053632283435876
        ]
      }
    },
    {
      "type": "Feature",
      "properties": {
        "norad_id": 44476,
        "name": "INTELSAT 39 (IS-39)",
        "group": "intelsat",
        "lat": -0.042194744521181375,
        "lon": -123.52333473977255,
        "alt_km": 35786.70985049323,
        "timestamp": "2025-12-20T05:41:49.686199+00:00",
        "meta_object_name": "INTELSAT 39 (IS-39)",
        "meta_object_id": "2019-049B",
        "meta_epoch": "2025-12-19T20:34:05.404800",
        "meta_mean_motion": 1.00273804,
        "meta_eccentricity": 7.094e-05,
        "meta_inclination": 0.0181,
        "meta_ra_of_asc_node": 338.3517,
        "meta_arg_of_pericenter": 144.5413,
        "meta_mean_anomaly": 336.274,
        "meta_ephemeris_type": 0,
        "meta_classification_type": "U",
        "meta_norad_cat_id": 44476,
        "meta_element_set_no": 999,
        "meta_rev_at_epoch": 2333,
        "meta_bstar": 0,
        "meta_mean_motion_dot": 5.7e-07,
        "meta_mean_motion_ddot": 0,
        "tle_line1": "1 44476U 19049B   25353.85700700  .00000057  00000+0  00000+0 0  9993",
        "tle_line2": "2 44476   0.0181 338.3517 0000709 144.5413 336.2740  1.00273804 23336"
      },
      "geometry": {
        "type": "Point",
        "coordinates": [
          -123.52333473977255,
          -0.042194744521181375
        ]
      }
    },
    {
      "type": "Feature",
      "properties": {
        "norad_id": 46114,
        "name": "GALAXY 30 (G-30)",
        "group": "intelsat",
        "lat": 0.01624257624836781,
        "lon": 49.5535306530915,
        "alt_km": 35792.06006206894,
        "timestamp": "2025-12-20T05:41:49.686222+00:00",
        "meta_object_name": "GALAXY 30 (G-30)",
        "meta_object_id": "2020-056C",
        "meta_epoch": "2025-12-19T13:12:02.202336",
        "meta_mean_motion": 1.00273015,
        "meta_eccentricity": 0.0002025,
        "meta_inclination": 0.0093,
        "meta_ra_of_asc_node": 38.0786,
        "meta_arg_of_pericenter": 233.5866,
        "meta_mean_anomaly": 249.7539,
        "meta_ephemeris_type": 0,
        "meta_classification_type": "U",
        "meta_norad_cat_id": 46114,
        "meta_element_set_no": 999,
        "meta_rev_at_epoch": 1949,
        "meta_bstar": 0,
        "meta_mean_motion_dot": 6.1e-07,
        "meta_mean_motion_ddot": 0,
        "tle_line1": "1 46114U 20056C   25353.55002549  .00000061  00000+0  00000+0 0  9992",
        "tle_line2": "2 46114   0.0093  38.0786 0002025 233.5866 249.7539  1.00273015 19495"
      },
      "geometry": {
        "type": "Point",
        "coordinates": [
          49.5535306530915,
          0.01624257624836781
        ]
      }
    },
    {
      "type": "Feature",
      "properties": {
        "norad_id": 54026,
        "name": "GALAXY 33 (G-33)",
        "group": "intelsat",
        "lat": 0.013429549346273717,
        "lon": 41.53648326000551,
        "alt_km": 35790.76397674013,
        "timestamp": "2025-12-20T05:41:49.686237+00:00",
        "meta_object_name": "GALAXY 33 (G-33)",
        "meta_object_id": "2022-128A",
        "meta_epoch": "2025-12-19T13:14:24.484128",
        "meta_mean_motion": 1.00270988,
        "meta_eccentricity": 0.0001546,
        "meta_inclination": 0.0121,
        "meta_ra_of_asc_node": 37.1109,
        "meta_arg_of_pericenter": 230.7871,
        "meta_mean_anomaly": 246.1062,
        "meta_ephemeris_type": 0,
        "meta_classification_type": "U",
        "meta_norad_cat_id": 54026,
        "meta_element_set_no": 999,
        "meta_rev_at_epoch": 1194,
        "meta_bstar": 0,
        "meta_mean_motion_dot": 1.03e-06,
        "meta_mean_motion_ddot": 0,
        "tle_line1": "1 54026U 22128A   25353.55167227  .00000103  00000+0  00000+0 0  9997",
        "tle_line2": "2 54026   0.0121  37.1109 0001546 230.7871 246.1062  1.00270988 11949"
      },
      "geometry": {
        "type": "Point",
        "coordinates": [
          41.53648326000551,
          0.013429549346273717
        ]
      }
    },
    {
      "type": "Feature",
      "properties": {
        "norad_id": 54027,
        "name": "GALAXY 34 (G-34)",
        "group": "intelsat",
        "lat": 0.03621963098063438,
        "lon": 45.58793928986887,
        "alt_km": 35793.17049106768,
        "timestamp": "2025-12-20T05:41:49.686249+00:00",
        "meta_object_name": "GALAXY 34 (G-34)",
        "meta_object_id": "2022-128B",
        "meta_epoch": "2025-12-19T13:10:06.061728",
        "meta_mean_motion": 1.00267598,
        "meta_eccentricity": 0.0001742,
        "meta_inclination": 0.0227,
        "meta_ra_of_asc_node": 2.2643,
        "meta_arg_of_pericenter": 259.2525,
        "meta_mean_anomaly": 255.4687,
        "meta_ephemeris_type": 0,
        "meta_classification_type": "U",
        "meta_norad_cat_id": 54027,
        "meta_element_set_no": 999,
        "meta_rev_at_epoch": 1211,
        "meta_bstar": 0,
        "meta_mean_motion_dot": 0,
        "meta_mean_motion_ddot": 0,
        "tle_line1": "1 54027U 22128B   25353.54868127  .00000000  00000+0  00000+0 0  9990",
        "tle_line2": "2 54027   0.0227   2.2643 0001742 259.2525 255.4687  1.00267598 12112"
      },
      "geometry": {
        "type": "Point",
        "coordinates": [
          45.58793928986887,
          0.03621963098063438
        ]
      }
    },
    {
      "type": "Feature",
      "properties": {
        "norad_id": 54243,
        "name": "GALAXY 31 (G-31)",
        "group": "intelsat",
        "lat": 0.010928313770179051,
        "lon": 53.53412654441624,
        "alt_km": 35790.409488793885,
        "timestamp": "2025-12-20T05:41:49.686261+00:00",
        "meta_object_name": "GALAXY 31 (G-31)",
        "meta_object_id": "2022-153A",
        "meta_epoch": "2025-12-19T13:14:56.205024",
        "meta_mean_motion": 1.00270971,
        "meta_eccentricity": 0.0001366,
        "meta_inclination": 0.0145,
        "meta_ra_of_asc_node": 65.0111,
        "meta_arg_of_pericenter": 212.9999,
        "meta_mean_anomaly": 248.1254,
        "meta_ephemeris_type": 0,
        "meta_classification_type": "U",
        "meta_norad_cat_id": 54243,
        "meta_element_set_no": 999,
        "meta_rev_at_epoch": 533,
        "meta_bstar": 0,
        "meta_mean_motion_dot": 3.8e-07,
        "meta_mean_motion_ddot": 0,
        "tle_line1": "1 54243U 22153A   25353.55203941  .00000038  00000+0  00000+0 0  9997",
        "tle_line2": "2 54243   0.0145  65.0111 0001366 212.9999 248.1254  1.00270971  5335"
      },
      "geometry": {
        "type": "Point",
        "coordinates": [
          53.53412654441624,
          0.010928313770179051
        ]
      }
    },
    {
      "type": "Feature",
      "properties": {
        "norad_id": 54244,
        "name": "GALAXY 32 (G-32)",
        "group": "intelsat",
        "lat": 0.038040772450869016,
        "lon": 83.54590074741243,
        "alt_km": 35790.90740015721,
        "timestamp": "2025-12-20T05:41:49.686273+00:00",
        "meta_object_name": "GALAXY 32 (G-32)",
        "meta_object_id": "2022-153B",
        "meta_epoch": "2025-12-19T12:21:45.204192",
        "meta_mean_motion": 1.00271304,
        "meta_eccentricity": 0.00019316,
        "meta_inclination": 0.0112,
        "meta_ra_of_asc_node": 8.1777,
        "meta_arg_of_pericenter": 310.6888,
        "meta_mean_anomaly": 223.9419,
        "meta_ephemeris_type": 0,
        "meta_classification_type": "U",
        "meta_norad_cat_id": 54244,
        "meta_element_set_no": 999,
        "meta_rev_at_epoch": 1134,
        "meta_bstar": 0,
        "meta_mean_motion_dot": -1.5e-06,
        "meta_mean_motion_ddot": 0,
        "tle_line1": "1 54244U 22153B   25353.51510653 -.00000150  00000+0  00000+0 0  9991",
        "tle_line2": "2 54244   0.0112   8.1777 0001931 310.6888 223.9419  1.00271304 11340"
      },
      "geometry": {
        "type": "Point",
        "coordinates": [
          83.54590074741243,
          0.038040772450869016
        ]
      }
    }
  ]
}